[
    {
        "Altitude(m)": 556367.404184096,
        "Argument of Periapsis(deg)": 0.0,
        "Eccentricity": 0.0,
        "Inclination(deg)": 53.0,
        "Latitude(deg)": 37.24573204847298,
        "Longitude(deg)": -30.23361498840243,
        "Mean Anomaly(deg)": 49.09089999999999,
        "RAAN(deg)": 35.0,
        "Satellite Name": "Starlink Shell 1 157",
        "Satellite Number": 157,
        "Semi-Major Axis(m)": 6931778.249405717,
        "Time(s)": 0
    },
    {
        "Altitude(m)": 556450.7900247732,
        "Argument of Periapsis(deg)": 0.00034857847951123687,
        "Eccentricity": 0.0,
        "Inclination(deg)": 53.0,
        "Latitude(deg)": 37.65695758927528,
        "Longitude(deg)": -29.67869046580653,
        "Mean Anomaly(deg)": 49.71773120355671,
        "RAAN(deg)": 34.99948122992253,
        "Satellite Name": "Starlink Shell 1 157",
        "Satellite Number": 157,
        "Semi-Major Axis(m)": 6931778.249405717,
        "Time(s)": 10
    },
    {
        "Altitude(m)": 556534.2623143609,
        "Argument of Periapsis(deg)": 0.0006971569590224737,
        "Eccentricity": 0.0,
        "Inclination(deg)": 53.0,
        "Latitude(deg)": 38.06510775049607,
        "Longitude(deg)": -29.11718458813599,
        "Mean Anomaly(deg)": 50.34456240711343,
        "RAAN(deg)": 34.998962459845046,
        "Satellite Name": "Starlink Shell 1 157",
        "Satellite Number": 157,
        "Semi-Major Axis(m)": 6931778.249405717,
        "Time(s)": 20
    },
    {
        "Altitude(m)": 556617.7658935941,
        "Argument of Periapsis(deg)": 0.0010457354385337105,
        "Eccentricity": 0.0,
        "Inclination(deg)": 53.0,
        "Latitude(deg)": 38.470103837291546,
        "Longitude(deg)": -28.548977087285966,
        "Mean Anomaly(deg)": 50.971393610670134,
        "RAAN(deg)": 34.998443689767576,
        "Satellite Name": "Starlink Shell 1 157",
        "Satellite Number": 157,
        "Semi-Major Axis(m)": 6931778.249405717,
        "Time(s)": 30
    },
    {
        "Altitude(m)": 556701.2457975566,
        "Argument of Periapsis(deg)": 0.0013943139180449475,
        "Eccentricity": 0.0,
        "Inclination(deg)": 53.0,
        "Latitude(deg)": 38.87186540745366,
        "Longitude(deg)": -27.973947333915227,
        "Mean Anomaly(deg)": 51.59822481422687,
        "RAAN(deg)": 34.99792491969011,
        "Satellite Name": "Starlink Shell 1 157",
        "Satellite Number": 157,
        "Semi-Major Axis(m)": 6931778.249405717,
        "Time(s)": 40
    },
    {
        "Altitude(m)": 556784.6472837368,
        "Argument of Periapsis(deg)": 0.0017428923975561844,
        "Eccentricity": 0.0,
        "Inclination(deg)": 53.0,
        "Latitude(deg)": 39.27031024838079,
        "Longitude(deg)": -27.391975520769954,
        "Mean Anomaly(deg)": 52.22505601778357,
        "RAAN(deg)": 34.99740614961263,
        "Satellite Name": "Starlink Shell 1 157",
        "Satellite Number": 157,
        "Semi-Major Axis(m)": 6931778.249405717,
        "Time(s)": 50
    },
    {
        "Altitude(m)": 556867.9158599378,
        "Argument of Periapsis(deg)": 0.002091470877067421,
        "Eccentricity": 0.0,
        "Inclination(deg)": 53.0,
        "Latitude(deg)": 39.665354356028836,
        "Longitude(deg)": -26.802942347059233,
        "Mean Anomaly(deg)": 52.85188722134028,
        "RAAN(deg)": 34.99688737953516,
        "Satellite Name": "Starlink Shell 1 157",
        "Satellite Number": 157,
        "Semi-Major Axis(m)": 6931778.249405717,
        "Time(s)": 60
    },
    {
        "Altitude(m)": 556950.9973120368,
        "Argument of Periapsis(deg)": 0.0024400493565786582,
        "Eccentricity": 0.0,
        "Inclination(deg)": 53.0,
        "Latitude(deg)": 40.05691191608317,
        "Longitude(deg)": -26.206728717363333,
        "Mean Anomaly(deg)": 53.478718424896996,
        "RAAN(deg)": 34.99636860945769,
        "Satellite Name": "Starlink Shell 1 157",
        "Satellite Number": 157,
        "Semi-Major Axis(m)": 6931778.249405717,
        "Time(s)": 70
    },
    {
        "Altitude(m)": 557033.8377315211,
        "Argument of Periapsis(deg)": 0.002788627836089895,
        "Eccentricity": 0.0,
        "Inclination(deg)": 53.0,
        "Latitude(deg)": 40.4448952876074,
        "Longitude(deg)": -25.603216968542643,
        "Mean Anomaly(deg)": 54.10554962845371,
        "RAAN(deg)": 34.99584983938021,
        "Satellite Name": "Starlink Shell 1 157",
        "Satellite Number": 157,
        "Semi-Major Axis(m)": 6931778.249405717,
        "Time(s)": 80
    },
    {
        "Altitude(m)": 557116.3835428782,
        "Argument of Periapsis(deg)": 0.0031372063156011316,
        "Eccentricity": 0.0,
        "Inclination(deg)": 53.0,
        "Latitude(deg)": 40.82921498944728,
        "Longitude(deg)": -24.992290599482597,
        "Mean Anomaly(deg)": 54.73238083201044,
        "RAAN(deg)": 34.99533106930274,
        "Satellite Name": "Starlink Shell 1 157",
        "Satellite Number": 157,
        "Semi-Major Axis(m)": 6931778.249405717,
        "Time(s)": 90
    },
    {
        "Altitude(m)": 557198.581530747,
        "Argument of Periapsis(deg)": 0.0034857847951123688,
        "Eccentricity": 0.0,
        "Inclination(deg)": 53.0,
        "Latitude(deg)": 41.20977968967826,
        "Longitude(deg)": -24.37383401709954,
        "Mean Anomaly(deg)": 55.359212035567154,
        "RAAN(deg)": 34.994812299225266,
        "Satellite Name": "Starlink Shell 1 157",
        "Satellite Number": 157,
        "Semi-Major Axis(m)": 6931778.249405717,
        "Time(s)": 100
    },
    {
        "Altitude(m)": 557280.3788668683,
        "Argument of Periapsis(deg)": 0.003834363274623606,
        "Eccentricity": 0.0,
        "Inclination(deg)": 53.0,
        "Latitude(deg)": 41.586496198400326,
        "Longitude(deg)": -23.74773381200201,
        "Mean Anomaly(deg)": 55.98604323912387,
        "RAAN(deg)": 34.9942935291478,
        "Satellite Name": "Starlink Shell 1 157",
        "Satellite Number": 157,
        "Semi-Major Axis(m)": 6931778.249405717,
        "Time(s)": 110
    },
    {
        "Altitude(m)": 557361.7231368002,
        "Argument of Periapsis(deg)": 0.004182941754134842,
        "Eccentricity": 0.0,
        "Inclination(deg)": 53.0,
        "Latitude(deg)": 41.95926946420729,
        "Longitude(deg)": -23.113878538542217,
        "Mean Anomaly(deg)": 56.61287444268057,
        "RAAN(deg)": 34.99377475907033,
        "Satellite Name": "Starlink Shell 1 157",
        "Satellite Number": 157,
        "Semi-Major Axis(m)": 6931778.249405717,
        "Time(s)": 120
    },
    {
        "Altitude(m)": 557442.5623663856,
        "Argument of Periapsis(deg)": 0.004531520233646079,
        "Eccentricity": 0.0,
        "Inclination(deg)": 53.0,
        "Latitude(deg)": 42.328002574665945,
        "Longitude(deg)": -22.472158512560192,
        "Mean Anomaly(deg)": 57.239705646237276,
        "RAAN(deg)": 34.99325598899285,
        "Satellite Name": "Starlink Shell 1 157",
        "Satellite Number": 157,
        "Semi-Major Axis(m)": 6931778.249405717,
        "Time(s)": 130
    },
    {
        "Altitude(m)": 557522.8450479588,
        "Argument of Periapsis(deg)": 0.0048800987131573164,
        "Eccentricity": 0.0,
        "Inclination(deg)": 53.0,
        "Latitude(deg)": 42.6925967611565,
        "Longitude(deg)": -21.822467140060525,
        "Mean Anomaly(deg)": 57.86653684979402,
        "RAAN(deg)": 34.99273721891538,
        "Satellite Name": "Starlink Shell 1 157",
        "Satellite Number": 157,
        "Semi-Major Axis(m)": 6931778.249405717,
        "Time(s)": 140
    },
    {
        "Altitude(m)": 557602.5201663186,
        "Argument of Periapsis(deg)": 0.005228677192668553,
        "Eccentricity": 0.0,
        "Inclination(deg)": 53.0,
        "Latitude(deg)": 43.05295140844638,
        "Longitude(deg)": -21.164700751374504,
        "Mean Anomaly(deg)": 58.49336805335072,
        "RAAN(deg)": 34.99221844883791,
        "Satellite Name": "Starlink Shell 1 157",
        "Satellite Number": 157,
        "Semi-Major Axis(m)": 6931778.249405717,
        "Time(s)": 150
    },
    {
        "Altitude(m)": 557681.5372243625,
        "Argument of Periapsis(deg)": 0.00557725567217979,
        "Eccentricity": 0.0,
        "Inclination(deg)": 53.0,
        "Latitude(deg)": 43.40896406937698,
        "Longitude(deg)": -20.49875845389123,
        "Mean Anomaly(deg)": 59.12019925690743,
        "RAAN(deg)": 34.99169967876043,
        "Satellite Name": "Starlink Shell 1 157",
        "Satellite Number": 157,
        "Semi-Major Axis(m)": 6931778.249405717,
        "Time(s)": 160
    },
    {
        "Altitude(m)": 557759.8462684852,
        "Argument of Periapsis(deg)": 0.0059258341516910265,
        "Eccentricity": 0.0,
        "Inclination(deg)": 53.0,
        "Latitude(deg)": 43.76053048505488,
        "Longitude(deg)": -19.82454351634543,
        "Mean Anomaly(deg)": 59.747030460464146,
        "RAAN(deg)": 34.99118090868296,
        "Satellite Name": "Starlink Shell 1 157",
        "Satellite Number": 157,
        "Semi-Major Axis(m)": 6931778.249405717,
        "Time(s)": 170
    },
    {
        "Altitude(m)": 557837.3979136503,
        "Argument of Periapsis(deg)": 0.006274412631202263,
        "Eccentricity": 0.0,
        "Inclination(deg)": 53.0,
        "Latitude(deg)": 44.10754461095729,
        "Longitude(deg)": -19.141963258921496,
        "Mean Anomaly(deg)": 60.37386166402088,
        "RAAN(deg)": 34.99066213860549,
        "Satellite Name": "Starlink Shell 1 157",
        "Satellite Number": 157,
        "Semi-Major Axis(m)": 6931778.249405717,
        "Time(s)": 180
    }
]